57191,POLYTECH-UNIVERSE 3 (RS46S),2023,95.02,-1.0,+,97.55,Active,0,LEO,Russia,Russia/USSR,Unknown,Unknown,Unknown,1 57191U 23091AB  25262.59202491  .00004355  00000+0  23317-3 0  9992,2 57191  97.5482 317.1291 0016371 354.7656   5.3403 15.15452216122910,15.15452216,0.0016371,LEO
57203,UTMN 2 (RS27S),2023,94.51,-1.0,+,97.55,Active,0,LEO,Russia,Russia/USSR,Unknown,Unknown,Unknown,1 57203U 23091AP  25262.56676924  .00009947  00000+0  41704-3 0  9991,2 57203  97.5504 322.0169 0008292 320.1725  39.8902 15.23682734123214,15.23682734,0.0008292,LEO
57205,ARCCUBE 1 (RS25S),2023,92.44,-1.0,+,97.53,Active,0,LEO,Russia,Russia/USSR,Unknown,Unknown,Unknown,1 57205U 23091AR  25262.55168299  .00095118  00000+0  12598-2 0  9996,2 57205  97.5349 332.9795 0004233 259.1108 100.9671 15.57962199123974,15.57962199,0.0004233,LEO
57217,KUZGTU 1 (RS47S),2023,94.62,-1.0,+,97.55,Active,0,LEO,Russia,Russia/USSR,Unknown,Unknown,Unknown,1 57217U 23091AV  25262.58857349  .00009295  00000+0  40963-3 0  9992,2 57217  97.5489 320.1708 0011946 334.4500  25.6144 15.21970648123109,15.21970648,0.0011946,LEO
59112,SONATE-2,2024,93.56,-1.0,+,97.53,Active,0,LEO,USA,Germany,Unknown,Unknown,Unknown,1 59112U 24043Q   25262.62291564  .00020256  00000+0  52065-3 0  9998,2 59112  97.5255  36.1583 0010978 109.7736 250.4694 15.39255892 86011,15.39255892,0.0010978,LEO
60209,MESAT1,2024,93.52,-1.0,+,97.27,Active,0,LEO,USA,USA,Unknown,Unknown,Unknown,1 60209U 24125G   25262.54212267  .00021573  00000+0  54223-3 0  9993,2 60209  97.2667 113.2046 0018502 126.9475 233.3469 15.39804320 67629,15.3980432,0.0018502,LEO
60240,OOV-CUBE (TUBSAT-30),2024,95.95,-1.0,+,61.99,Active,0,LEO,French Guiana,Germany,Unknown,Unknown,Unknown,1 60240U 24128F   25262.62156740  .00002779  00000+0  22636-3 0  9993,2 60240  61.9943  87.8022 0058043  76.7328 284.0227 15.00817214 65472,15.00817214,0.0058043,LEO
61746,COLIBRI-S (RS67S),2024,93.81,-1.0,+,97.34,Active,0,LEO,Russia,Russia/USSR,Unknown,Unknown,Unknown,1 61746U 24199M   25262.58135055  .00014152  00000+0  41743-3 0  9992,2 61746  97.3399 130.7036 0011535 168.4955 191.6554 15.35042624 95725,15.35042624,0.0011535,LEO
61753,HORS 3 (RS81S),2024,93.68,-1.0,+,97.34,Active,0,LEO,Russia,Russia/USSR,Unknown,Unknown,Unknown,1 61753U 24199U   25262.59139968  .00017465  00000+0  48156-3 0  9993,2 61753  97.3370 131.0182 0009693 173.4657 186.6716 15.37127227 95757,15.37127227,0.0009693,LEO
61754,HORS 4 (RS82S),2024,93.62,-1.0,+,97.34,Active,0,LEO,Russia,Russia/USSR,Unknown,Unknown,Unknown,1 61754U 24199V   25262.60188649  .00021130  00000+0  56215-3 0  9995,2 61754  97.3361 131.2929 0010007 172.0923 188.0482 15.38192902 95772,15.38192902,0.0010007,LEO
61757,HORIZON (RS59S),2024,93.32,-1.0,+,97.34,Active,0,LEO,Russia,Russia/USSR,Unknown,Unknown,Unknown,1 61757U 24199Y   25262.58661266  .00030770  00000+0  69286-3 0  9998,2 61757  97.3378 132.4760 0010304 156.9299 203.2413 15.43179652 95841,15.43179652,0.0010304,LEO
61764,SIT-2086,2024,93.61,-1.0,+,97.34,Active,0,LEO,Russia,Russia/USSR,Unknown,Unknown,Unknown,1 61764U 24199AF  25262.56742972  .00014441  00000+0  38317-3 0  9996,2 61764  97.3370 131.6599 0008516 167.5637 192.5820 15.38372274 92633,15.38372274,0.0008516,LEO
61765,MORDOVIA-IOT (RS50S),2024,92.94,-1.0,+,97.33,Active,0,LEO,Russia,Russia/USSR,Unknown,Unknown,Unknown,1 61765U 24199AG  25262.57745880  .00049210  00000+0  88900-3 0  9994,2 61765  97.3344 133.7951 0009508 148.2085 211.9742 15.49519497 92782,15.49519497,0.0009508,LEO
61766,RUZAEVKA 390 (RS44S),2024,93.08,-1.0,+,97.33,Active,0,LEO,Russia,Russia/USSR,Unknown,Unknown,Unknown,1 61766U 24199AH  25262.57803694  .00041073  00000+0  80810-3 0  9994,2 61766  97.3344 133.3358 0009716 149.5400 210.6416 15.47100409 92754,15.47100409,0.0009716,LEO
61772,HYPERVIEW 1G (RS66S),2024,93.52,-1.0,+,97.34,Active,0,LEO,Russia,Russia/USSR,Unknown,Unknown,Unknown,1 61772U 24199AP  25262.60139670  .00025458  00000+0  64084-3 0  9995,2 61772  97.3361 131.4460 0012348 175.8564 184.2787 15.39827345 92631,15.39827345,0.0012348,LEO
61779,ALTAIR (RS65S),2024,94.09,-1.0,+,97.34,Active,0,LEO,Russia,Russia/USSR,Unknown,Unknown,Unknown,1 61779U 24199AW  25262.59075762  .00008165  00000+0  27898-3 0  9999,2 61779  97.3395 129.2727 0014583 187.6900 172.4120 15.30448720 95634,15.3044872,0.0014583,LEO
