[{"OBJECT_NAME":"POLYTECH-UNIVERSE 3 (RS46S)","OBJECT_ID":"2023-091AB","EPOCH":"2025-09-19T14:12:30.952224","MEAN_MOTION":15.15452216,"ECCENTRICITY":0.0016371,"INCLINATION":97.5482,"RA_OF_ASC_NODE":317.1291,"ARG_OF_PERICENTER":354.7656,"MEAN_ANOMALY":5.3403,"EPHEMERIS_TYPE":0,"CLASSIFICATION_TYPE":"U","NORAD_CAT_ID":57191,"ELEMENT_SET_NO":999,"REV_AT_EPOCH":12291,"BSTAR":0.00023316813,"MEAN_MOTION_DOT":4.355e-5,"MEAN_MOTION_DDOT":0},{"OBJECT_NAME":"UTMN 2 (RS27S)","OBJECT_ID":"2023-091AP","EPOCH":"2025-09-19T13:36:08.862336","MEAN_MOTION":15.23682734,"ECCENTRICITY":0.00082925,"INCLINATION":97.5504,"RA_OF_ASC_NODE":322.0169,"ARG_OF_PERICENTER":320.1725,"MEAN_ANOMALY":39.8902,"EPHEMERIS_TYPE":0,"CLASSIFICATION_TYPE":"U","NORAD_CAT_ID":57203,"ELEMENT_SET_NO":999,"REV_AT_EPOCH":12321,"BSTAR":0.0004170393,"MEAN_MOTION_DOT":9.947e-5,"MEAN_MOTION_DDOT":0},{"OBJECT_NAME":"ARCCUBE 1 (RS25S)","OBJECT_ID":"2023-091AR","EPOCH":"2025-09-19T13:14:25.410336","MEAN_MOTION":15.57962199,"ECCENTRICITY":0.00042336,"INCLINATION":97.5349,"RA_OF_ASC_NODE":332.9795,"ARG_OF_PERICENTER":259.1108,"MEAN_ANOMALY":100.9671,"EPHEMERIS_TYPE":0,"CLASSIFICATION_TYPE":"U","NORAD_CAT_ID":57205,"ELEMENT_SET_NO":999,"REV_AT_EPOCH":12397,"BSTAR":0.0012598045,"MEAN_MOTION_DOT":0.00095118,"MEAN_MOTION_DDOT":0},{"OBJECT_NAME":"KUZGTU 1 (RS47S)","OBJECT_ID":"2023-091AV","EPOCH":"2025-09-19T14:07:32.749536","MEAN_MOTION":15.21970648,"ECCENTRICITY":0.00119466,"INCLINATION":97.5489,"RA_OF_ASC_NODE":320.1708,"ARG_OF_PERICENTER":334.45,"MEAN_ANOMALY":25.6144,"EPHEMERIS_TYPE":0,"CLASSIFICATION_TYPE":"U","NORAD_CAT_ID":57217,"ELEMENT_SET_NO":999,"REV_AT_EPOCH":12310,"BSTAR":0.00040963362,"MEAN_MOTION_DOT":9.295e-5,"MEAN_MOTION_DDOT":0},{"OBJECT_NAME":"SONATE-2","OBJECT_ID":"2024-043Q","EPOCH":"2025-09-19T14:56:59.911296","MEAN_MOTION":15.39255892,"ECCENTRICITY":0.00109781,"INCLINATION":97.5255,"RA_OF_ASC_NODE":36.1583,"ARG_OF_PERICENTER":109.7736,"MEAN_ANOMALY":250.4694,"EPHEMERIS_TYPE":0,"CLASSIFICATION_TYPE":"U","NORAD_CAT_ID":59112,"ELEMENT_SET_NO":999,"REV_AT_EPOCH":8601,"BSTAR":0.00052064603,"MEAN_MOTION_DOT":0.00020256,"MEAN_MOTION_DDOT":0},{"OBJECT_NAME":"MESAT1","OBJECT_ID":"2024-125G","EPOCH":"2025-09-19T13:00:39.398688","MEAN_MOTION":15.3980432,"ECCENTRICITY":0.00185027,"INCLINATION":97.2667,"RA_OF_ASC_NODE":113.2046,"ARG_OF_PERICENTER":126.9475,"MEAN_ANOMALY":233.3469,"EPHEMERIS_TYPE":0,"CLASSIFICATION_TYPE":"U","NORAD_CAT_ID":60209,"ELEMENT_SET_NO":999,"REV_AT_EPOCH":6762,"BSTAR":0.00054222835,"MEAN_MOTION_DOT":0.00021573,"MEAN_MOTION_DDOT":0},{"OBJECT_NAME":"OOV-CUBE (TUBSAT-30)","OBJECT_ID":"2024-128F","EPOCH":"2025-09-19T14:55:03.423360","MEAN_MOTION":15.00817214,"ECCENTRICITY":0.0058043,"INCLINATION":61.9943,"RA_OF_ASC_NODE":87.8022,"ARG_OF_PERICENTER":76.7328,"MEAN_ANOMALY":284.0227,"EPHEMERIS_TYPE":0,"CLASSIFICATION_TYPE":"U","NORAD_CAT_ID":60240,"ELEMENT_SET_NO":999,"REV_AT_EPOCH":6547,"BSTAR":0.00022636489,"MEAN_MOTION_DOT":2.779e-5,"MEAN_MOTION_DDOT":0},{"OBJECT_NAME":"COLIBRI-S (RS67S)","OBJECT_ID":"2024-199M","EPOCH":"2025-09-19T13:57:08.687520","MEAN_MOTION":15.35042624,"ECCENTRICITY":0.0011535,"INCLINATION":97.3399,"RA_OF_ASC_NODE":130.7036,"ARG_OF_PERICENTER":168.4955,"MEAN_ANOMALY":191.6554,"EPHEMERIS_TYPE":0,"CLASSIFICATION_TYPE":"U","NORAD_CAT_ID":61746,"ELEMENT_SET_NO":999,"REV_AT_EPOCH":9572,"BSTAR":0.00041743421,"MEAN_MOTION_DOT":0.00014152,"MEAN_MOTION_DDOT":0},{"OBJECT_NAME":"HORS 3 (RS81S)","OBJECT_ID":"2024-199U","EPOCH":"2025-09-19T14:11:36.932352","MEAN_MOTION":15.37127227,"ECCENTRICITY":0.00096931,"INCLINATION":97.337,"RA_OF_ASC_NODE":131.0182,"ARG_OF_PERICENTER":173.4657,"MEAN_ANOMALY":186.6716,"EPHEMERIS_TYPE":0,"CLASSIFICATION_TYPE":"U","NORAD_CAT_ID":61753,"ELEMENT_SET_NO":999,"REV_AT_EPOCH":9575,"BSTAR":0.00048155646,"MEAN_MOTION_DOT":0.00017465,"MEAN_MOTION_DDOT":0},{"OBJECT_NAME":"HORS 4 (RS82S)","OBJECT_ID":"2024-199V","EPOCH":"2025-09-19T14:26:42.992736","MEAN_MOTION":15.38192902,"ECCENTRICITY":0.00100077,"INCLINATION":97.3361,"RA_OF_ASC_NODE":131.2929,"ARG_OF_PERICENTER":172.0923,"MEAN_ANOMALY":188.0482,"EPHEMERIS_TYPE":0,"CLASSIFICATION_TYPE":"U","NORAD_CAT_ID":61754,"ELEMENT_SET_NO":999,"REV_AT_EPOCH":9577,"BSTAR":0.00056215442,"MEAN_MOTION_DOT":0.0002113,"MEAN_MOTION_DDOT":0},{"OBJECT_NAME":"HORIZON (RS59S)","OBJECT_ID":"2024-199Y","EPOCH":"2025-09-19T14:04:43.333824","MEAN_MOTION":15.43179652,"ECCENTRICITY":0.00103047,"INCLINATION":97.3378,"RA_OF_ASC_NODE":132.476,"ARG_OF_PERICENTER":156.9299,"MEAN_ANOMALY":203.2413,"EPHEMERIS_TYPE":0,"CLASSIFICATION_TYPE":"U","NORAD_CAT_ID":61757,"ELEMENT_SET_NO":999,"REV_AT_EPOCH":9584,"BSTAR":0.00069285593,"MEAN_MOTION_DOT":0.0003077,"MEAN_MOTION_DDOT":0},{"OBJECT_NAME":"SIT-2086","OBJECT_ID":"2024-199AF","EPOCH":"2025-09-19T13:37:05.927808","MEAN_MOTION":15.38372274,"ECCENTRICITY":0.00085165,"INCLINATION":97.337,"RA_OF_ASC_NODE":131.6599,"ARG_OF_PERICENTER":167.5637,"MEAN_ANOMALY":192.582,"EPHEMERIS_TYPE":0,"CLASSIFICATION_TYPE":"U","NORAD_CAT_ID":61764,"ELEMENT_SET_NO":999,"REV_AT_EPOCH":9263,"BSTAR":0.00038316631,"MEAN_MOTION_DOT":0.00014441,"MEAN_MOTION_DDOT":0},{"OBJECT_NAME":"MORDOVIA-IOT (RS50S)","OBJECT_ID":"2024-199AG","EPOCH":"2025-09-19T13:51:32.440320","MEAN_MOTION":15.49519497,"ECCENTRICITY":0.0009508,"INCLINATION":97.3344,"RA_OF_ASC_NODE":133.7951,"ARG_OF_PERICENTER":148.2085,"MEAN_ANOMALY":211.9742,"EPHEMERIS_TYPE":0,"CLASSIFICATION_TYPE":"U","NORAD_CAT_ID":61765,"ELEMENT_SET_NO":999,"REV_AT_EPOCH":9278,"BSTAR":0.0008889999,"MEAN_MOTION_DOT":0.0004921,"MEAN_MOTION_DDOT":0},{"OBJECT_NAME":"RUZAEVKA 390 (RS44S)","OBJECT_ID":"2024-199AH","EPOCH":"2025-09-19T13:52:22.391616","MEAN_MOTION":15.47100409,"ECCENTRICITY":0.00097169,"INCLINATION":97.3344,"RA_OF_ASC_NODE":133.3358,"ARG_OF_PERICENTER":149.54,"MEAN_ANOMALY":210.6416,"EPHEMERIS_TYPE":0,"CLASSIFICATION_TYPE":"U","NORAD_CAT_ID":61766,"ELEMENT_SET_NO":999,"REV_AT_EPOCH":9275,"BSTAR":0.00080809613,"MEAN_MOTION_DOT":0.00041073,"MEAN_MOTION_DDOT":0},{"OBJECT_NAME":"HYPERVIEW 1G (RS66S)","OBJECT_ID":"2024-199AP","EPOCH":"2025-09-19T14:26:00.674880","MEAN_MOTION":15.39827345,"ECCENTRICITY":0.0012348,"INCLINATION":97.3361,"RA_OF_ASC_NODE":131.446,"ARG_OF_PERICENTER":175.8564,"MEAN_ANOMALY":184.2787,"EPHEMERIS_TYPE":0,"CLASSIFICATION_TYPE":"U","NORAD_CAT_ID":61772,"ELEMENT_SET_NO":999,"REV_AT_EPOCH":9263,"BSTAR":0.00064084141,"MEAN_MOTION_DOT":0.00025458,"MEAN_MOTION_DDOT":0},{"OBJECT_NAME":"ALTAIR (RS65S)","OBJECT_ID":"2024-199AW","EPOCH":"2025-09-19T14:10:41.458368","MEAN_MOTION":15.3044872,"ECCENTRICITY":0.00145839,"INCLINATION":97.3395,"RA_OF_ASC_NODE":129.2727,"ARG_OF_PERICENTER":187.69,"MEAN_ANOMALY":172.412,"EPHEMERIS_TYPE":0,"CLASSIFICATION_TYPE":"U","NORAD_CAT_ID":61779,"ELEMENT_SET_NO":999,"REV_AT_EPOCH":9563,"BSTAR":0.00027898038,"MEAN_MOTION_DOT":8.165e-5,"MEAN_MOTION_DDOT":0}]
